[{"OBJECT_NAME":"STARLINK-32593","OBJECT_ID":"2024-210R","EPOCH":"2026-03-09T06:53:38.337792","MEAN_MOTION":15.27595378,"ECCENTRICITY":0.00028414,"INCLINATION":43.0026,"RA_OF_ASC_NODE":182.5093,"ARG_OF_PERICENTER":295.6911,"MEAN_ANOMALY":64.3648,"EPHEMERIS_TYPE":0,"CLASSIFICATION_TYPE":"U","NORAD_CAT_ID":61974,"ELEMENT_SET_NO":999,"REV_AT_EPOCH":7481,"BSTAR":0.0014146192,"MEAN_MOTION_DOT":0.00038891,"MEAN_MOTION_DDOT":0},{"OBJECT_NAME":"OBJECT J","OBJECT_ID":"2025-155J","EPOCH":"2026-03-09T22:09:22.347648","MEAN_MOTION":15.2758258,"ECCENTRICITY":0.00088188,"INCLINATION":97.4475,"RA_OF_ASC_NODE":37.3123,"ARG_OF_PERICENTER":150.071,"MEAN_ANOMALY":210.1035,"EPHEMERIS_TYPE":0,"CLASSIFICATION_TYPE":"U","NORAD_CAT_ID":64884,"ELEMENT_SET_NO":999,"REV_AT_EPOCH":6559,"BSTAR":0.00051444498,"MEAN_MOTION_DOT":0.00013827,"MEAN_MOTION_DDOT":0}]
